{"features":[{"type":"Feature","geometry":{"type":"Polygon","coordinates":[[[-0.138380743969641,51.5418178124098],[-0.137561069942509,51.5408839576542],[-0.137485538954274,51.5407934252287],[-0.139091528406554,51.5410439394133],[-0.139878407729634,51.5405135896422],[-0.139332063159206,51.5398767852095],[-0.141409418080943,51.5391226266006],[-0.139936467352813,51.5375845845075],[-0.143530731045792,51.5364521308471],[-0.145353037491618,51.536431758558],[-0.14628240247291,51.5367646062807],[-0.151153060734249,51.5412643625327],[-0.153115520298077,51.5423403827652],[-0.155008380868182,51.5428965450369],[-0.154729024001669,51.5433353335442],[-0.152635077667815,51.5438671266052],[-0.147327675557463,51.5425006480096],[-0.146895722010047,51.5433211545766],[-0.145897007071677,51.5439125257042],[-0.146424581113286,51.54546710166],[-0.141553275985396,51.5451768409208],[-0.138380743969641,51.5418178124098]]]},"properties":{"WD22CD":"E05013655","WD22NM":"Camden Town","LAD22NM":"Camden"}},{"type":"Feature","geometry":{"type":"Polygon","coordinates":[[[-0.138372221484241,51.5568664506386],[-0.137152877301541,51.5553992063266],[-0.135229907875061,51.5545898626851],[-0.134353438542746,51.5536227099102],[-0.131001011590044,51.5515136884853],[-0.130691568284157,51.5506740014336],[-0.140854618495148,51.55086368395],[-0.143878219952379,51.5517666647362],[-0.147766415418032,51.5524673062212],[-0.148247256623484,51.5532342316213],[-0.145809106822034,51.5559133941397],[-0.141784533349094,51.5573025956637],[-0.141997676641346,51.5575415762724],[-0.139414037002799,51.5582441525867],[-0.138372221484241,51.5568664506386]]]},"properties":{"WD22CD":"E05013663","WD22NM":"Kentish Town North","LAD22NM":"Camden"}},{"type":"Feature","geometry":{"type":"Polygon","coordinates":[[[-0.148247256623484,51.5532342316213],[-0.147766415418032,51.5524673062212],[-0.147187426561649,51.5487985259621],[-0.149665714545626,51.5508371446976],[-0.15300701947282,51.5491693990471],[-0.154223999499189,51.5504136108373],[-0.156731270314568,51.5510105571294],[-0.159570170797365,51.5505402861449],[-0.15958496591105,51.5498701166989],[-0.160490614034293,51.5488375716941],[-0.161736873857539,51.5486819230184],[-0.167722998627606,51.5524833164824],[-0.167402342986262,51.5537449915747],[-0.164991237607547,51.5541841887139],[-0.166102004398913,51.5550701813093],[-0.162962233723056,51.5557109031686],[-0.158558585505163,51.5561056480529],[-0.155350714314341,51.5562378292479],[-0.152547046279128,51.5557931167293],[-0.150017780072923,51.5547375670621],[-0.148247256623484,51.5532342316213]]]},"properties":{"WD22CD":"E05013658","WD22NM":"Gospel Oak","LAD22NM":"Camden"}},{"type":"Feature","geometry":{"type":"Polygon","coordinates":[[[-0.130691568284157,51.5506740014336],[-0.130136742169827,51.5496204420755],[-0.129106175158119,51.5488381413114],[-0.136942943825475,51.5432475536927],[-0.138380743969641,51.5418178124098],[-0.141553275985396,51.5451768409208],[-0.146424581113286,51.54546710166],[-0.147187426561649,51.5487985259621],[-0.147766415418032,51.5524673062212],[-0.143878219952379,51.5517666647362],[-0.140854618495148,51.55086368395],[-0.130691568284157,51.5506740014336]]]},"properties":{"WD22CD":"E05013664","WD22NM":"Kentish Town South","LAD22NM":"Camden"}},{"type":"Feature","geometry":{"type":"Polygon","coordinates":[[[-0.142389915041378,51.5691229084999],[-0.14065561569734,51.5645551916864],[-0.141005511242233,51.5604323028087],[-0.139414037002799,51.5582441525867],[-0.141997676641346,51.5575415762724],[-0.141784533349094,51.5573025956637],[-0.145809106822034,51.5559133941397],[-0.148247256623484,51.5532342316213],[-0.150017780072923,51.5547375670621],[-0.152547046279128,51.5557931167293],[-0.155350714314341,51.5562378292479],[-0.158558585505163,51.5561056480529],[-0.159100611813335,51.5562580307035],[-0.161337398355892,51.5587781764551],[-0.162215463899679,51.5589609845905],[-0.164448494248505,51.5620349227834],[-0.166108755205874,51.5631961679459],[-0.168514220118711,51.5641041924375],[-0.172431786914158,51.5667789419343],[-0.172473399530526,51.5703747765508],[-0.173435927702792,51.5711019804725],[-0.171259811936078,51.5724322033182],[-0.16734751541648,51.5729727609312],[-0.164275280740102,51.5725039423817],[-0.160429466577038,51.5727899440138],[-0.158837176903217,51.5721957429138],[-0.150324995779949,51.5715763987195],[-0.143829476915696,51.5699154773454],[-0.142389915041378,51.5691229084999]]]},"properties":{"WD22CD":"E05013661","WD22NM":"Highgate","LAD22NM":"Camden"}},{"type":"Feature","geometry":{"type":"Polygon","coordinates":[[[-0.125062587090604,51.5411433179081],[-0.123049504006118,51.5385002295501],[-0.122374740902916,51.5368869398225],[-0.12253019496056,51.5307275716894],[-0.119870070991019,51.5309394886792],[-0.115990695256413,51.5298448215257],[-0.115406440049286,51.5277240028512],[-0.112923408795948,51.5264107148457],[-0.114227491789358,51.5255189133939],[-0.115938992002982,51.5243602513096],[-0.121857906993595,51.5229924852766],[-0.124224634781916,51.5269792272545],[-0.126191722998352,51.5291205644903],[-0.128622482612542,51.5334757924782],[-0.126536663775962,51.5341489537563],[-0.126333641155928,51.5346937907901],[-0.128761974434672,51.5369612601484],[-0.132408843292803,51.5383220712161],[-0.136617650373953,51.5407940088841],[-0.137485538954274,51.5407934252287],[-0.137561069942509,51.5408839576542],[-0.135835355635257,51.5414694508048],[-0.132031316513159,51.5411462969177],[-0.125062587090604,51.5411433179081]]]},"properties":{"WD22CD":"E05013666","WD22NM":"King\u0027s Cross","LAD22NM":"Camden"}},{"type":"Feature","geometry":{"type":"Polygon","coordinates":[[[-0.167722998627606,51.5524833164824],[-0.161736873857539,51.5486819230184],[-0.158947341210002,51.5470379072174],[-0.159414830325082,51.5463495238943],[-0.161277839067888,51.5454653462211],[-0.162887329511883,51.5455241074284],[-0.173473099736871,51.5441227443171],[-0.175081583707601,51.5435893305212],[-0.17595317167673,51.5447121227426],[-0.178409359885517,51.5457745383203],[-0.179537192577749,51.5468907587462],[-0.180252385666018,51.5476633337619],[-0.179608389722853,51.5478954724762],[-0.180161645451293,51.5484855709336],[-0.179688426521464,51.5501144362074],[-0.179837603549235,51.5518338780722],[-0.177174370727562,51.5526776901827],[-0.176445144971766,51.552162272915],[-0.175901709895852,51.5523115985774],[-0.17589061210848,51.5516835623185],[-0.175071986675058,51.5516735946267],[-0.171625691690797,51.5528883386462],[-0.16917059943922,51.5532130172021],[-0.167722998627606,51.5524833164824]]]},"properties":{"WD22CD":"E05013652","WD22NM":"Belsize","LAD22NM":"Camden"}},{"type":"Feature","geometry":{"type":"Polygon","coordinates":[[[-0.175901709895852,51.5523115985774],[-0.176445144971766,51.552162272915],[-0.177174370727562,51.5526776901827],[-0.179837603549235,51.5518338780722],[-0.179688426521464,51.5501144362074],[-0.180161645451293,51.5484855709336],[-0.179608389722853,51.5478954724762],[-0.180252385666018,51.5476633337619],[-0.181804805228122,51.5496342197476],[-0.18565931980723,51.5520868044015],[-0.188746225722953,51.5529461479741],[-0.194567123266621,51.5562790010539],[-0.1967928195342,51.5591859494606],[-0.196894651976271,51.560623567907],[-0.19482694452441,51.5604838807126],[-0.192294985814158,51.5615411114132],[-0.191115259946041,51.5616379892144],[-0.190319900324105,51.5628524902228],[-0.188043267186079,51.5623913363387],[-0.184467608627272,51.5621489928858],[-0.182205014169147,51.5595335625515],[-0.178542856442792,51.5566703835681],[-0.178573295213638,51.555572418783],[-0.176018566495394,51.5531944975395],[-0.175901709895852,51.5523115985774]]]},"properties":{"WD22CD":"E05013657","WD22NM":"Frognal","LAD22NM":"Camden"}},{"type":"Feature","geometry":{"type":"Polygon","coordinates":[[[-0.147187426561649,51.5487985259621],[-0.146424581113286,51.54546710166],[-0.145897007071677,51.5439125257042],[-0.146895722010047,51.5433211545766],[-0.147327675557463,51.5425006480096],[-0.152635077667815,51.5438671266052],[-0.154729024001669,51.5433353335442],[-0.155008380868182,51.5428965450369],[-0.159544652279486,51.5431128394463],[-0.159560516815019,51.5441355082503],[-0.161277839067888,51.5454653462211],[-0.159414830325082,51.5463495238943],[-0.158947341210002,51.5470379072174],[-0.161736873857539,51.5486819230184],[-0.160490614034293,51.5488375716941],[-0.15958496591105,51.5498701166989],[-0.159570170797365,51.5505402861449],[-0.156731270314568,51.5510105571294],[-0.154223999499189,51.5504136108373],[-0.15300701947282,51.5491693990471],[-0.149665714545626,51.5508371446976],[-0.147187426561649,51.5487985259621]]]},"properties":{"WD22CD":"E05013660","WD22NM":"Haverstock","LAD22NM":"Camden"}},{"type":"Feature","geometry":{"type":"Polygon","coordinates":[[[-0.126329931049997,51.545038324673],[-0.125062587090604,51.5411433179081],[-0.132031316513159,51.5411462969177],[-0.135835355635257,51.5414694508048],[-0.137561069942509,51.5408839576542],[-0.138380743969641,51.5418178124098],[-0.136942943825475,51.5432475536927],[-0.129106175158119,51.5488381413114],[-0.127177963298738,51.5476650110207],[-0.126329931049997,51.545038324673]]]},"properties":{"WD22CD":"E05013654","WD22NM":"Camden Square","LAD22NM":"Camden"}},{"type":"Feature","geometry":{"type":"MultiPolygon","coordinates":[[[[-0.201708634429896,51.5455404281816],[-0.201718738602047,51.5455603227191],[-0.201697917922262,51.5455439203222],[-0.201708634429896,51.5455404281816]]],[[[-0.201718738602047,51.5455603227191],[-0.201745838964482,51.5455283062479],[-0.201708634429896,51.5455404281816],[-0.201630103910252,51.5453858232313],[-0.197706617899386,51.5463524632175],[-0.195846659509112,51.5463343463127],[-0.195895474795395,51.5457902377748],[-0.196271896043614,51.5458486670956],[-0.197019248688513,51.5449967651292],[-0.196965552015429,51.544472617045],[-0.193811177136231,51.5441520733539],[-0.193197291637834,51.5442307488692],[-0.193161828213012,51.544539728208],[-0.192457068145801,51.5445331442915],[-0.193179605896627,51.5424114970104],[-0.19198018147515,51.541064137485],[-0.19008137217825,51.5411169188407],[-0.188572411083338,51.5404694767248],[-0.188153600434554,51.5407934308296],[-0.185933540099502,51.5407059858507],[-0.185688037908054,51.5402286826235],[-0.187298110313581,51.5398959916954],[-0.186914564261521,51.53940897017],[-0.182540180275634,51.540663230537],[-0.179250965278331,51.5412232397189],[-0.178328139673015,51.539794984165],[-0.18015581511083,51.5395634509378],[-0.183848345465745,51.5383805750199],[-0.18772622142824,51.5350359157018],[-0.188748581031736,51.5345256984123],[-0.191458547220205,51.5362913453065],[-0.201907715003858,51.5452888464907],[-0.203441196980801,51.5467097865813],[-0.202976935310423,51.5466844991598],[-0.201718738602047,51.5455603227191]]]]},"properties":{"WD22CD":"E05013665","WD22NM":"Kilburn","LAD22NM":"Camden"}},{"type":"Feature","geometry":{"type":"Polygon","coordinates":[[[-0.158558585505163,51.5561056480529],[-0.162962233723056,51.5557109031686],[-0.166102004398913,51.5550701813093],[-0.164991237607547,51.5541841887139],[-0.167402342986262,51.5537449915747],[-0.167722998627606,51.5524833164824],[-0.16917059943922,51.5532130172021],[-0.171625691690797,51.5528883386462],[-0.175071986675058,51.5516735946267],[-0.17589061210848,51.5516835623185],[-0.175901709895852,51.5523115985774],[-0.176018566495394,51.5531944975395],[-0.178573295213638,51.555572418783],[-0.178542856442792,51.5566703835681],[-0.182205014169147,51.5595335625515],[-0.184467608627272,51.5621489928858],[-0.188043267186079,51.5623913363387],[-0.190319900324105,51.5628524902228],[-0.189618241339357,51.5652558999411],[-0.186142460357236,51.5669234022454],[-0.183786204641713,51.5675011292641],[-0.183693788858893,51.5679753562186],[-0.182108655035085,51.5687238900824],[-0.180808592516493,51.5694387073703],[-0.180949346771069,51.569671122727],[-0.178281173837698,51.5700339039467],[-0.178053053975561,51.5704337373878],[-0.174381522625196,51.5692561527316],[-0.17370554690985,51.5699200548506],[-0.173435927702792,51.5711019804725],[-0.172473399530526,51.5703747765508],[-0.172431786914158,51.5667789419343],[-0.168514220118711,51.5641041924375],[-0.166108755205874,51.5631961679459],[-0.164448494248505,51.5620349227834],[-0.162215463899679,51.5589609845905],[-0.161337398355892,51.5587781764551],[-0.159100611813335,51.5562580307035],[-0.158558585505163,51.5561056480529]]]},"properties":{"WD22CD":"E05013659","WD22NM":"Hampstead Town","LAD22NM":"Camden"}},{"type":"Feature","geometry":{"type":"Polygon","coordinates":[[[-0.121857906993595,51.5229924852766],[-0.125012816025377,51.5221899869851],[-0.121020915209181,51.5189688879868],[-0.120406704112241,51.5176218599194],[-0.130352202259822,51.5164348803781],[-0.130806305287935,51.5171035125327],[-0.13244929746451,51.5167196391939],[-0.132543431402028,51.5171662411925],[-0.133597086548045,51.517729785224],[-0.134044908645759,51.5175633135708],[-0.135232777091495,51.5189347704146],[-0.135826301642717,51.5186959871167],[-0.136296510253029,51.5191485532678],[-0.137007679760983,51.5188864624814],[-0.142875640188932,51.5238796679489],[-0.143494259717961,51.5239642040091],[-0.141837244208311,51.5241046879119],[-0.135395711007855,51.5257596571417],[-0.130817578076872,51.5273232624754],[-0.126191722998352,51.5291205644903],[-0.124224634781916,51.5269792272545],[-0.121857906993595,51.5229924852766]]]},"properties":{"WD22CD":"E05013653","WD22NM":"Bloomsbury","LAD22NM":"Camden"}},{"type":"Feature","geometry":{"type":"Polygon","coordinates":[[[-0.105322049415006,51.518544582242],[-0.107807134757825,51.5177674867918],[-0.113795291953892,51.5182593202663],[-0.111581077794617,51.5153396471014],[-0.113833608229958,51.5148220028531],[-0.114692654293649,51.5160417493048],[-0.11946757789129,51.5145068164441],[-0.121817842762482,51.5148682001343],[-0.122072579434114,51.5146295463754],[-0.122868560832358,51.5151458259399],[-0.127327383807263,51.5126667616112],[-0.129041448588674,51.5134527300329],[-0.129827063055846,51.5144791434697],[-0.130352202259822,51.5164348803781],[-0.120406704112241,51.5176218599194],[-0.121020915209181,51.5189688879868],[-0.125012816025377,51.5221899869851],[-0.121857906993595,51.5229924852766],[-0.115938992002982,51.5243602513096],[-0.114227491789358,51.5255189133939],[-0.112537126532448,51.5237956424082],[-0.108965324316871,51.5230214256492],[-0.108254191794709,51.5220944896202],[-0.106994564741237,51.5221911393223],[-0.105322049415006,51.518544582242]]]},"properties":{"WD22CD":"E05013662","WD22NM":"Holborn \u0026 Covent Garden","LAD22NM":"Camden"}},{"type":"Feature","geometry":{"type":"Polygon","coordinates":[[[-0.188746225722953,51.5529461479741],[-0.192553390359599,51.5519557968483],[-0.193064928164017,51.5522174877762],[-0.198661837208795,51.5516221662494],[-0.197445134326969,51.5492865324946],[-0.197796947667277,51.5480089618205],[-0.19976681981413,51.5479787157989],[-0.203711511004685,51.5469596248513],[-0.213476554588311,51.555188542315],[-0.210004225496615,51.5567542884796],[-0.208825878780286,51.5557376857368],[-0.205967506046487,51.556418404815],[-0.205790388624826,51.5553077866553],[-0.199385017692441,51.5561952331522],[-0.199635255947523,51.5569823795093],[-0.198508301301288,51.5581592256088],[-0.198454169049239,51.5587618038264],[-0.197959766310752,51.5591184840455],[-0.19759835415856,51.5588817970343],[-0.1967928195342,51.5591859494606],[-0.194567123266621,51.5562790010539],[-0.188746225722953,51.5529461479741]]]},"properties":{"WD22CD":"E05013656","WD22NM":"Fortune Green","LAD22NM":"Camden"}},{"type":"Feature","geometry":{"type":"Polygon","coordinates":[[[-0.179537192577749,51.5468907587462],[-0.178409359885517,51.5457745383203],[-0.17595317167673,51.5447121227426],[-0.175081583707601,51.5435893305212],[-0.17576552433296,51.5396167268367],[-0.178328139673015,51.539794984165],[-0.179250965278331,51.5412232397189],[-0.182540180275634,51.540663230537],[-0.186914564261521,51.53940897017],[-0.187298110313581,51.5398959916954],[-0.185688037908054,51.5402286826235],[-0.185933540099502,51.5407059858507],[-0.188153600434554,51.5407934308296],[-0.188572411083338,51.5404694767248],[-0.19008137217825,51.5411169188407],[-0.19198018147515,51.541064137485],[-0.193179605896627,51.5424114970104],[-0.192457068145801,51.5445331442915],[-0.191706375008874,51.5450325077092],[-0.191115679340636,51.5467548962816],[-0.182692672553898,51.5474682562535],[-0.181643811696385,51.5474073141107],[-0.180108706099622,51.546715275657],[-0.179537192577749,51.5468907587462]]]},"properties":{"WD22CD":"E05013670","WD22NM":"South Hampstead","LAD22NM":"Camden"}},{"type":"Feature","geometry":{"type":"Polygon","coordinates":[[[-0.161277839067888,51.5454653462211],[-0.159560516815019,51.5441355082503],[-0.159544652279486,51.5431128394463],[-0.155008380868182,51.5428965450369],[-0.153115520298077,51.5423403827652],[-0.151153060734249,51.5412643625327],[-0.14628240247291,51.5367646062807],[-0.146786154095503,51.5361347113648],[-0.149707805147015,51.5372653382274],[-0.152706883198073,51.5375212232938],[-0.159416289405085,51.5363636454812],[-0.160461397148228,51.5372833582205],[-0.164935703520094,51.5357815053199],[-0.169517481454141,51.5385994585462],[-0.170864978635647,51.5377949134142],[-0.171955952053823,51.5383847660793],[-0.173485635946981,51.5376342787527],[-0.174116240229673,51.5382016557547],[-0.173896380620828,51.5394787764227],[-0.17576552433296,51.5396167268367],[-0.175081583707601,51.5435893305212],[-0.173473099736871,51.5441227443171],[-0.162887329511883,51.5455241074284],[-0.161277839067888,51.5454653462211]]]},"properties":{"WD22CD":"E05013667","WD22NM":"Primrose Hill","LAD22NM":"Camden"}},{"type":"Feature","geometry":{"type":"Polygon","coordinates":[[[-0.137485538954274,51.5407934252287],[-0.136617650373953,51.5407940088841],[-0.132408843292803,51.5383220712161],[-0.128761974434672,51.5369612601484],[-0.126333641155928,51.5346937907901],[-0.126536663775962,51.5341489537563],[-0.128622482612542,51.5334757924782],[-0.126191722998352,51.5291205644903],[-0.130817578076872,51.5273232624754],[-0.135069295211725,51.5312409300094],[-0.136544014345459,51.5309819903753],[-0.139048549204604,51.5317380117758],[-0.139279023310662,51.5324890511737],[-0.137793701134849,51.5327526234369],[-0.136140596863744,51.5336214644227],[-0.135473544990399,51.5344725938089],[-0.135475202677153,51.5352432966138],[-0.137355895170478,51.5347525784775],[-0.139936467352813,51.5375845845075],[-0.141409418080943,51.5391226266006],[-0.139332063159206,51.5398767852095],[-0.139878407729634,51.5405135896422],[-0.139091528406554,51.5410439394133],[-0.137485538954274,51.5407934252287]]]},"properties":{"WD22CD":"E05013669","WD22NM":"St Pancras \u0026 Somers Town","LAD22NM":"Camden"}},{"type":"Feature","geometry":{"type":"Polygon","coordinates":[[[-0.130817578076872,51.5273232624754],[-0.135395711007855,51.5257596571417],[-0.141837244208311,51.5241046879119],[-0.143494259717961,51.5239642040091],[-0.143389316488256,51.5245433580479],[-0.14396420471523,51.5246900961157],[-0.144129428952446,51.5239975028278],[-0.14517318268498,51.5239960338076],[-0.145790140032812,51.5252719486623],[-0.147170377877423,51.525042931689],[-0.152706883198073,51.5375212232938],[-0.149707805147015,51.5372653382274],[-0.146786154095503,51.5361347113648],[-0.14628240247291,51.5367646062807],[-0.145353037491618,51.536431758558],[-0.143530731045792,51.5364521308471],[-0.139936467352813,51.5375845845075],[-0.137355895170478,51.5347525784775],[-0.135475202677153,51.5352432966138],[-0.135473544990399,51.5344725938089],[-0.136140596863744,51.5336214644227],[-0.137793701134849,51.5327526234369],[-0.139279023310662,51.5324890511737],[-0.139048549204604,51.5317380117758],[-0.136544014345459,51.5309819903753],[-0.135069295211725,51.5312409300094],[-0.130817578076872,51.5273232624754]]]},"properties":{"WD22CD":"E05013668","WD22NM":"Regent\u0027s Park","LAD22NM":"Camden"}},{"type":"Feature","geometry":{"type":"MultiPolygon","coordinates":[[[[-0.201708634429896,51.5455404281816],[-0.201745838964482,51.5455283062479],[-0.201718738602047,51.5455603227191],[-0.201708634429896,51.5455404281816]]],[[[-0.201708634429896,51.5455404281816],[-0.201697917922262,51.5455439203222],[-0.201718738602047,51.5455603227191],[-0.202976935310423,51.5466844991598],[-0.203441196980801,51.5467097865813],[-0.203522652826487,51.5467782832017],[-0.203711511004685,51.5469596248513],[-0.19976681981413,51.5479787157989],[-0.197796947667277,51.5480089618205],[-0.197445134326969,51.5492865324946],[-0.198661837208795,51.5516221662494],[-0.193064928164017,51.5522174877762],[-0.192553390359599,51.5519557968483],[-0.188746225722953,51.5529461479741],[-0.18565931980723,51.5520868044015],[-0.181804805228122,51.5496342197476],[-0.180252385666018,51.5476633337619],[-0.179537192577749,51.5468907587462],[-0.180108706099622,51.546715275657],[-0.181643811696385,51.5474073141107],[-0.182692672553898,51.5474682562535],[-0.191115679340636,51.5467548962816],[-0.191706375008874,51.5450325077092],[-0.192457068145801,51.5445331442915],[-0.193161828213012,51.544539728208],[-0.193197291637834,51.5442307488692],[-0.193811177136231,51.5441520733539],[-0.196965552015429,51.544472617045],[-0.197019248688513,51.5449967651292],[-0.196271896043614,51.5458486670956],[-0.195895474795395,51.5457902377748],[-0.195846659509112,51.5463343463127],[-0.197706617899386,51.5463524632175],[-0.201630103910252,51.5453858232313],[-0.201708634429896,51.5455404281816]]]]},"properties":{"WD22CD":"E05013671","WD22NM":"West Hampstead","LAD22NM":"Camden"}}],"type":"FeatureCollection"}
